{
  "norad_id": 53709,
  "name": "STARLINK-4685",
  "history": [
    {
      "epoch": "2026-03-28T11:17:49.524576Z",
      "apogee_km": 540.6219181894776,
      "perigee_km": 538.8312983731103,
      "latitude_deg": -2.3879336855554348e-05,
      "longitude_deg": 169.15753907826334,
      "height_km": 540.5876119759232,
      "semi_major_axis_km": 6917.863608281294,
      "eccentricity": 0.00012942,
      "inclination_deg": 53.2157,
      "raan_deg": 164.5046,
      "arg_perigee_deg": 87.7839,
      "mean_anomaly_deg": 272.3301,
      "mean_motion_rev_day": 15.0884549
    },
    {
      "epoch": "2026-03-29T22:16:18.165792Z",
      "apogee_km": 540.6186510537646,
      "perigee_km": 538.8352257304468,
      "latitude_deg": 2.7216787913500095e-05,
      "longitude_deg": -3.4404177724097242,
      "height_km": 540.5838142667404,
      "semi_major_axis_km": 6917.863938392105,
      "eccentricity": 0.0001289,
      "inclination_deg": 53.215,
      "raan_deg": 157.9623,
      "arg_perigee_deg": 87.5143,
      "mean_anomaly_deg": 272.5997,
      "mean_motion_rev_day": 15.08845382
    },
    {
      "epoch": "2026-03-29T22:16:18.166656Z",
      "apogee_km": 540.6188585896825,
      "perigee_km": 538.8350181945289,
      "latitude_deg": 2.444948825180988e-05,
      "longitude_deg": -3.4404234399900044,
      "height_km": 540.5838052659502,
      "semi_major_axis_km": 6917.863938392105,
      "eccentricity": 0.00012893,
      "inclination_deg": 53.215,
      "raan_deg": 157.9623,
      "arg_perigee_deg": 87.5143,
      "mean_anomaly_deg": 272.5997,
      "mean_motion_rev_day": 15.08845382
    },
    {
      "epoch": "2026-03-30T10:59:23.606304Z",
      "apogee_km": 540.6884671476137,
      "perigee_km": 538.8157945598905,
      "latitude_deg": 4.456299274634271e-05,
      "longitude_deg": 162.884709882679,
      "height_km": 540.7423983697909,
      "semi_major_axis_km": 6917.889130853751,
      "eccentricity": 0.00013535,
      "inclination_deg": 53.2164,
      "raan_deg": 155.5824,
      "arg_perigee_deg": 95.8022,
      "mean_anomaly_deg": 264.3125,
      "mean_motion_rev_day": 15.0883714
    },
    {
      "epoch": "2026-03-31T20:22:29.252352Z",
      "apogee_km": 540.5694337079667,
      "perigee_km": 538.9160604484141,
      "latitude_deg": 2.0012682430250625e-07,
      "longitude_deg": 14.498084321897293,
      "height_km": 540.6159967357805,
      "semi_major_axis_km": 6917.87974707819,
      "eccentricity": 0.0001195,
      "inclination_deg": 53.2163,
      "raan_deg": 149.3404,
      "arg_perigee_deg": 88.4357,
      "mean_anomaly_deg": 271.6772,
      "mean_motion_rev_day": 15.0884021
    },
    {
      "epoch": "2026-04-01T20:13:16.832352Z",
      "apogee_km": 540.6884869981186,
      "perigee_km": 538.8275732350176,
      "latitude_deg": -6.077894985422339e-06,
      "longitude_deg": 11.36018789576578,
      "height_km": 540.6985548928064,
      "semi_major_axis_km": 6917.895030116568,
      "eccentricity": 0.0001345,
      "inclination_deg": 53.2165,
      "raan_deg": 144.8801,
      "arg_perigee_deg": 92.7655,
      "mean_anomaly_deg": 267.3491,
      "mean_motion_rev_day": 15.0883521
    },
    {
      "epoch": "2026-04-02T20:04:03.417024Z",
      "apogee_km": 540.6811129499301,
      "perigee_km": 538.7947468140501,
      "latitude_deg": -2.6680493417917752e-05,
      "longitude_deg": 8.2258389003029,
      "height_km": 540.6514645354233,
      "semi_major_axis_km": 6917.874929881989,
      "eccentricity": 0.00013634,
      "inclination_deg": 53.2165,
      "raan_deg": 140.4192,
      "arg_perigee_deg": 91.0889,
      "mean_anomaly_deg": 269.0259,
      "mean_motion_rev_day": 15.08841786
    },
    {
      "epoch": "2026-04-03T11:57:54.770976Z",
      "apogee_km": 540.6459049325986,
      "perigee_km": 538.8248442087161,
      "latitude_deg": 2.5381509944142665e-05,
      "longitude_deg": 126.1348117243321,
      "height_km": 540.685769855076,
      "semi_major_axis_km": 6917.872374570657,
      "eccentricity": 0.00013162,
      "inclination_deg": 53.2163,
      "raan_deg": 137.445,
      "arg_perigee_deg": 93.447,
      "mean_anomaly_deg": 266.6673,
      "mean_motion_rev_day": 15.08842622
    },
    {
      "epoch": "2026-04-04T11:48:42.829632Z",
      "apogee_km": 540.7383828354477,
      "perigee_km": 538.7832465550582,
      "latitude_deg": 5.1724517948550775e-06,
      "longitude_deg": 122.99390332286582,
      "height_km": 540.6223330455421,
      "semi_major_axis_km": 6917.897814695252,
      "eccentricity": 0.00014131,
      "inclination_deg": 53.2162,
      "raan_deg": 132.9837,
      "arg_perigee_deg": 88.0077,
      "mean_anomaly_deg": 272.1077,
      "mean_motion_rev_day": 15.08834299
    },
    {
      "epoch": "2026-04-05T08:28:43.455936Z",
      "apogee_km": 540.7545664071877,
      "perigee_km": 538.751975531547,
      "latitude_deg": 6.279969871667917e-06,
      "longitude_deg": 168.2768364450618,
      "height_km": 540.623952689402,
      "semi_major_axis_km": 6917.890270969367,
      "eccentricity": 0.00014474,
      "inclination_deg": 53.2166,
      "raan_deg": 129.118,
      "arg_perigee_deg": 88.5798,
      "mean_anomaly_deg": 271.536,
      "mean_motion_rev_day": 15.08836767
    },
    {
      "epoch": "2026-04-06T01:57:57.919968Z",
      "apogee_km": 540.6626259636441,
      "perigee_km": 538.856778208532,
      "latitude_deg": 6.04812408004949e-05,
      "longitude_deg": -98.02287140599846,
      "height_km": 540.5322334466242,
      "semi_major_axis_km": 6917.896702086088,
      "eccentricity": 0.00013052,
      "inclination_deg": 53.2162,
      "raan_deg": 125.8467,
      "arg_perigee_deg": 82.1622,
      "mean_anomaly_deg": 277.9519,
      "mean_motion_rev_day": 15.08834663
    },
    {
      "epoch": "2026-04-07T04:59:31.069536Z",
      "apogee_km": 540.6557911507443,
      "perigee_km": 538.8246290532306,
      "latitude_deg": 2.9302407915797757e-05,
      "longitude_deg": -149.57583391915702,
      "height_km": 540.4840026779164,
      "semi_major_axis_km": 6917.877210101988,
      "eccentricity": 0.00013235,
      "inclination_deg": 53.216,
      "raan_deg": 120.7918,
      "arg_perigee_deg": 80.454,
      "mean_anomaly_deg": 279.6602,
      "mean_motion_rev_day": 15.0884104
    },
    {
      "epoch": "2026-04-07T20:53:22.558272Z",
      "apogee_km": 540.5517529162962,
      "perigee_km": 538.9343525599652,
      "latitude_deg": -3.0904042243521e-05,
      "longitude_deg": -31.667709730749625,
      "height_km": 540.5592402412677,
      "semi_major_axis_km": 6917.88005273813,
      "eccentricity": 0.0001169,
      "inclination_deg": 53.2146,
      "raan_deg": 117.8174,
      "arg_perigee_deg": 84.3586,
      "mean_anomaly_deg": 275.7539,
      "mean_motion_rev_day": 15.0884011
    },
    {
      "epoch": "2026-04-08T11:11:51.593568Z",
      "apogee_km": 540.6052353313999,
      "perigee_km": 538.9359442299865,
      "latitude_deg": -2.9593350935174976e-05,
      "longitude_deg": 110.4500976604006,
      "height_km": 540.4946118600474,
      "semi_major_axis_km": 6917.907589780693,
      "eccentricity": 0.00012065,
      "inclination_deg": 53.2168,
      "raan_deg": 115.1438,
      "arg_perigee_deg": 78.1166,
      "mean_anomaly_deg": 281.9961,
      "mean_motion_rev_day": 15.08831101
    },
    {
      "epoch": "2026-04-09T06:16:30.736704Z",
      "apogee_km": 540.6867185988476,
      "perigee_km": 538.9219517642423,
      "latitude_deg": 1.2788913164308018e-05,
      "longitude_deg": 179.93214364809972,
      "height_km": 540.6349690326754,
      "semi_major_axis_km": 6917.941335181545,
      "eccentricity": 0.00012755,
      "inclination_deg": 53.2151,
      "raan_deg": 111.5724,
      "arg_perigee_deg": 85.7794,
      "mean_anomaly_deg": 274.3344,
      "mean_motion_rev_day": 15.08820061
    },
    {
      "epoch": "2026-04-10T07:42:40.643136Z",
      "apogee_km": 540.490402977337,
      "perigee_km": 539.0682177422541,
      "latitude_deg": -5.92550225021485e-05,
      "longitude_deg": 152.59278746766483,
      "height_km": 540.7139693379029,
      "semi_major_axis_km": 6917.916310359796,
      "eccentricity": 0.00010279,
      "inclination_deg": 53.2162,
      "raan_deg": 106.819,
      "arg_perigee_deg": 93.1135,
      "mean_anomaly_deg": 266.9974,
      "mean_motion_rev_day": 15.08828248
    },
    {
      "epoch": "2026-04-11T17:05:45.857184Z",
      "apogee_km": 540.6435153862058,
      "perigee_km": 538.8199651862669,
      "latitude_deg": -4.066255526699719e-05,
      "longitude_deg": 4.2015090991787085,
      "height_km": 540.4297910975438,
      "semi_major_axis_km": 6917.868740286236,
      "eccentricity": 0.0001318,
      "inclination_deg": 53.2159,
      "raan_deg": 100.5705,
      "arg_perigee_deg": 77.483,
      "mean_anomaly_deg": 282.6309,
      "mean_motion_rev_day": 15.08843811
    },
    {
      "epoch": "2026-04-13T05:39:37.268928Z",
      "apogee_km": 540.5840502644687,
      "perigee_km": 538.8556929036722,
      "latitude_deg": 5.3378993849987126e-05,
      "longitude_deg": 167.39582094090795,
      "height_km": 540.4752783046608,
      "semi_major_axis_km": 6917.85687158407,
      "eccentricity": 0.00012492,
      "inclination_deg": 53.2169,
      "raan_deg": 93.7306,
      "arg_perigee_deg": 80.6486,
      "mean_anomaly_deg": 279.4648,
      "mean_motion_rev_day": 15.08847694
    },
    {
      "epoch": "2026-04-14T08:41:10.237920Z",
      "apogee_km": 540.610332804592,
      "perigee_km": 538.8003485345789,
      "latitude_deg": 3.587159680915585e-05,
      "longitude_deg": 115.8427269381842,
      "height_km": 540.5302263396304,
      "semi_major_axis_km": 6917.842340669585,
      "eccentricity": 0.00013082,
      "inclination_deg": 53.2164,
      "raan_deg": 88.6748,
      "arg_perigee_deg": 85.5135,
      "mean_anomaly_deg": 274.6007,
      "mean_motion_rev_day": 15.08852448
    }
  ]
}